IRIDIUM 36 [-]          
1 24967U 97056C   23318.55714907  .00000650  00000+0  21504-3 0  9995
2 24967  86.3988  56.7699 0002256  93.8939 266.2516 14.36507983368832
IRIDIUM 39 [-]          
1 25042U 97069D   23318.63868879  .00001030  00000+0  27426-3 0  9993
2 25042  86.3889  99.7859 0020474  84.2636 276.0901 14.47494580364936
IRIDIUM 38 [-]          
1 25043U 97069E   23318.49371124  .00000649  00000+0  21269-3 0  9994
2 25043  86.3929 117.2960 0001780 155.1910 204.9373 14.36962358362531
IRIDIUM 42 [-]          
1 25077U 97077A   23318.50070548  .00000579  00000+0  19549-3 0  9998
2 25077  86.3935 122.7561 0001760 106.6092 253.5297 14.35270675357872
IRIDIUM 44 [-]          
1 25078U 97077B   23318.68571353  .00000713  00000+0  22435-3 0  9996
2 25078  86.3925 106.1579 0003653 112.5679 247.5906 14.39070016360186
IRIDIUM 45 [-]          
1 25104U 97082A   23318.77806882  .00011515  00000+0  73565-3 0  9992
2 25104  86.3733 322.8627 0174451 299.7493  58.6478 14.96719337364572
IRIDIUM 24 [-]          
1 25105U 97082B   23319.10807412  .00000701  00000+0  21254-3 0  9994
2 25105  86.3888 325.9502 0011277 181.6900 178.4264 14.40829446359905
IRIDIUM 51 [-]          
1 25262U 98018A   23318.54050123  .00010939  00000+0  59951-3 0  9993
2 25262  86.3917 333.4197 0160128 253.2234 105.1380 15.03648928358934
